0 COSMOS 1249 COOLANT
1 28211U 81021U   13283.42142865  .00000086  00000-0  13865-3 0  3371
2 28211 064.9548 212.6789 0060239 305.7196 053.8176 13.90965400537864
0 COSMOS 1249 COOLANT
1 28211U 81021U   13290.17975970  .00000098  00000-0  14831-3 0  3380
2 28211 064.9559 194.9458 0059671 302.8477 056.7190 13.90968434538802
0 COSMOS 1249 COOLANT
1 28211U 81021U   13296.07530458  .00000098  00000-0  14831-3 0  3394
2 28211 064.9559 179.4780 0059670 300.9188 058.6017 13.90970663539622
